{
  "type": "FeatureCollection",
  "generator": "overpass-turbo",
  "copyright": "The data included in this document is from www.openstreetmap.org. The data is made available under ODbL.",
  "timestamp": "2026-09-27T00:15:20Z",
  "features": [
    {
      "type": "Feature",
      "properties": {
        "@id": "way/288513141",
        "highway": "track"
      },
      "geometry": {
        "type": "LineString",
        "coordinates": [
          [
            -84.6283824,
            34.6496061
          ],
          [
            -84.628433,
            34.6493808
          ],
          [
            -84.6285018,
            34.6490644
          ],
          [
            -84.6285383,
            34.6489071
          ],
          [
            -84.6286307,
            34.6487727
          ],
          [
            -84.6288369,
            34.648619
          ],
          [
            -84.6291807,
            34.6484051
          ],
          [
            -84.629344,
            34.6482707
          ],
          [
            -84.62943,
            34.6482036
          ],
          [
            -84.6294042,
            34.6481117
          ],
          [
            -84.6292731,
            34.6479738
          ],
          [
            -84.6291335,
            34.647843
          ],
          [
            -84.6290346,
            34.6477334
          ],
          [
            -84.6289874,
            34.6476026
          ],
          [
            -84.6290131,
            34.6474877
          ],
          [
            -84.6290647,
            34.6473021
          ],
          [
            -84.6290991,
            34.6472208
          ],
          [
            -84.6292216,
            34.6470051
          ],
          [
            -84.629286,
            34.6468178
          ],
          [
            -84.6294128,
            34.6466233
          ],
          [
            -84.6294901,
            34.646512
          ],
          [
            -84.629546,
            34.64639
          ],
          [
            -84.629561,
            34.6462786
          ],
          [
            -84.6295546,
            34.6461549
          ],
          [
            -84.6295159,
            34.6460294
          ],
          [
            -84.629445,
            34.6458367
          ],
          [
            -84.6294128,
            34.6457042
          ],
          [
            -84.6294708,
            34.645485
          ],
          [
            -84.6296276,
            34.6453718
          ],
          [
            -84.6298597,
            34.6452587
          ],
          [
            -84.6301326,
            34.6451456
          ],
          [
            -84.6302486,
            34.6450749
          ],
          [
            -84.6303754,
            34.6449494
          ],
          [
            -84.6304291,
            34.6447832
          ],
          [
            -84.6304162,
            34.644511
          ],
          [
            -84.6304269,
            34.6442458
          ],
          [
            -84.6304828,
            34.6440938
          ],
          [
            -84.6305215,
            34.644016
          ],
          [
            -84.630543,
            34.643917
          ],
          [
            -84.6306848,
            34.6438145
          ],
          [
            -84.630775,
            34.643765
          ],
          [
            -84.6308996,
            34.6436466
          ],
          [
            -84.6310028,
            34.6434751
          ],
          [
            -84.63102,
            34.6433531
          ],
          [
            -84.6311081,
            34.6431728
          ],
          [
            -84.6312069,
            34.6429324
          ],
          [
            -84.6312219,
            34.6427274
          ],
          [
            -84.6311983,
            34.6425347
          ],
          [
            -84.6311833,
            34.6424286
          ],
          [
            -84.6311768,
            34.6423261
          ],
          [
            -84.6311295,
            34.6420998
          ],
          [
            -84.6310414,
            34.6419036
          ],
          [
            -84.6308631,
            34.6416986
          ],
          [
            -84.6307944,
            34.6415872
          ],
          [
            -84.6307621,
            34.6414387
          ],
          [
            -84.6307406,
            34.6413256
          ],
          [
            -84.6308438,
            34.6410498
          ],
          [
            -84.6310952,
            34.6406963
          ],
          [
            -84.6311704,
            34.6405407
          ],
          [
            -84.631237,
            34.640424
          ],
          [
            -84.6312864,
            34.640302
          ],
          [
            -84.6312799,
            34.6401836
          ],
          [
            -84.6311919,
            34.6400457
          ],
          [
            -84.6311209,
            34.6399467
          ],
          [
            -84.6309297,
            34.639777
          ],
          [
            -84.6307256,
            34.6396639
          ],
          [
            -84.6305752,
            34.6396232
          ],
          [
            -84.6303238,
            34.6395525
          ],
          [
            -84.6302314,
            34.6394641
          ],
          [
            -84.6301476,
            34.639328
          ],
          [
            -84.6300767,
            34.6392007
          ],
          [
            -84.6300445,
            34.6390805
          ],
          [
            -84.6300359,
            34.638955
          ],
          [
            -84.630008,
            34.6387906
          ],
          [
            -84.6299994,
            34.6386527
          ],
          [
            -84.6299564,
            34.6385325
          ],
          [
            -84.6298468,
            34.6384088
          ],
          [
            -84.6296083,
            34.6382726
          ],
          [
            -84.6293591,
            34.6381595
          ],
          [
            -84.6292151,
            34.6380888
          ],
          [
            -84.6291055,
            34.6379986
          ],
          [
            -84.6290819,
            34.6378837
          ],
          [
            -84.6290926,
            34.6378077
          ],
          [
            -84.6291442,
            34.6376627
          ],
          [
            -84.6292473,
            34.6374577
          ],
          [
            -84.6292946,
            34.6373074
          ],
          [
            -84.6293161,
            34.6371129
          ],
          [
            -84.6293225,
            34.6370139
          ],
          [
            -84.6292842,
            34.6368786
          ],
          [
            -84.6292774,
            34.6368548
          ],
          [
            -84.6291485,
            34.6367046
          ],
          [
            -84.629011,
            34.636549
          ],
          [
            -84.6289272,
            34.6363775
          ],
          [
            -84.6288907,
            34.6362343
          ],
          [
            -84.6288799,
            34.6361424
          ],
          [
            -84.6289014,
            34.6358454
          ],
          [
            -84.6289079,
            34.6355838
          ],
          [
            -84.6288907,
            34.6353486
          ],
          [
            -84.6288842,
            34.6352284
          ],
          [
            -84.6289164,
            34.6350799
          ],
          [
            -84.6290282,
            34.6348996
          ],
          [
            -84.6291055,
            34.6347422
          ],
          [
            -84.6292065,
            34.6345
          ],
          [
            -84.6292258,
            34.6343445
          ],
          [
            -84.6292258,
            34.6341412
          ],
          [
            -84.6292366,
            34.6339821
          ],
          [
            -84.6292409,
            34.6338742
          ],
          [
            -84.6292216,
            34.6335896
          ],
          [
            -84.6292516,
            34.6333615
          ],
          [
            -84.6293032,
            34.6330539
          ],
          [
            -84.6292839,
            34.6327604
          ],
          [
            -84.6292301,
            34.6325553
          ],
          [
            -84.62917,
            34.6324528
          ],
          [
            -84.6290325,
            34.6322583
          ],
          [
            -84.6289336,
            34.6321629
          ],
          [
            -84.6288649,
            34.632101
          ],
          [
            -84.6288198,
            34.6320798
          ]
        ]
      },
      "id": "way/288513141"
    },
    {
      "type": "Feature",
      "properties": {
        "@id": "way/288513142",
        "highway": "track"
      },
      "geometry": {
        "type": "LineString",
        "coordinates": [
          [
            -84.6292842,
            34.6368786
          ],
          [
            -84.6294794,
            34.6368159
          ],
          [
            -84.62972,
            34.6366816
          ],
          [
            -84.6298726,
            34.6365967
          ],
          [
            -84.6299908,
            34.636427
          ],
          [
            -84.6301175,
            34.6361954
          ],
          [
            -84.6302701,
            34.6359126
          ],
          [
            -84.6304097,
            34.6357641
          ],
          [
            -84.630515,
            34.6356368
          ],
          [
            -84.6307621,
            34.6354476
          ],
          [
            -84.6309319,
            34.635338
          ]
        ]
      },
      "id": "way/288513142"
    },
    {
      "type": "Feature",
      "properties": {
        "@id": "way/288542797",
        "highway": "path"
      },
      "geometry": {
        "type": "LineString",
        "coordinates": [
          [
            -84.640887,
            34.6350899
          ],
          [
            -84.640887,
            34.6353129
          ],
          [
            -84.6409015,
            34.6355869
          ],
          [
            -84.640887,
            34.6356542
          ],
          [
            -84.6408834,
            34.6356842
          ]
        ]
      },
      "id": "way/288542797"
    },
    {
      "type": "Feature",
      "properties": {
        "@id": "way/368665781",
        "highway": "path"
      },
      "geometry": {
        "type": "LineString",
        "coordinates": [
          [
            -84.6568151,
            34.6169902
          ],
          [
            -84.6564817,
            34.6168436
          ],
          [
            -84.6561208,
            34.6168097
          ],
          [
            -84.6555863,
            34.6169075
          ],
          [
            -84.6550792,
            34.6170579
          ],
          [
            -84.6540605,
            34.6170767
          ],
          [
            -84.6538457,
            34.6169225
          ],
          [
            -84.6536402,
            34.6166218
          ],
          [
            -84.6533661,
            34.6164037
          ],
          [
            -84.6530783,
            34.6162458
          ],
          [
            -84.652795,
            34.6162157
          ],
          [
            -84.6525803,
            34.6163586
          ],
          [
            -84.652288,
            34.6163774
          ],
          [
            -84.6511367,
            34.6167383
          ],
          [
            -84.6504378,
            34.6168549
          ],
          [
            -84.6503373,
            34.6169601
          ],
          [
            -84.6502596,
            34.6171744
          ],
          [
            -84.6499444,
            34.617306
          ],
          [
            -84.6497526,
            34.6174413
          ],
          [
            -84.649643,
            34.617646
          ],
          [
            -84.6495333,
            34.6180789
          ],
          [
            -84.6494302,
            34.6183838
          ],
          [
            -84.6494922,
            34.6185842
          ],
          [
            -84.6496018,
            34.6191707
          ],
          [
            -84.649748,
            34.6196294
          ],
          [
            -84.6499581,
            34.619964
          ],
          [
            -84.650086,
            34.6205128
          ],
          [
            -84.6502733,
            34.620964
          ],
          [
            -84.6503784,
            34.6213888
          ],
          [
            -84.6503145,
            34.6217497
          ],
          [
            -84.6502727,
            34.6227354
          ],
          [
            -84.6501564,
            34.6230119
          ],
          [
            -84.6499497,
            34.6232245
          ],
          [
            -84.6492132,
            34.6236286
          ],
          [
            -84.6488126,
            34.6240486
          ],
          [
            -84.6483733,
            34.6249204
          ],
          [
            -84.6483281,
            34.6251756
          ],
          [
            -84.6479885,
            34.6255195
          ],
          [
            -84.6477382,
            34.6256936
          ],
          [
            -84.6476762,
            34.6258671
          ],
          [
            -84.647832,
            34.6260889
          ],
          [
            -84.6480373,
            34.6262548
          ],
          [
            -84.6485736,
            34.6265472
          ],
          [
            -84.6486769,
            34.6265632
          ],
          [
            -84.6489224,
            34.6267758
          ],
          [
            -84.6490452,
            34.6269566
          ],
          [
            -84.6493876,
            34.6270363
          ],
          [
            -84.6497688,
            34.6272436
          ],
          [
            -84.6499109,
            34.6275467
          ],
          [
            -84.6498721,
            34.6277115
          ],
          [
            -84.6496378,
            34.6280996
          ],
          [
            -84.6492394,
            34.6284074
          ],
          [
            -84.6490849,
            34.6288021
          ],
          [
            -84.6487841,
            34.6293708
          ],
          [
            -84.6484019,
            34.6297923
          ],
          [
            -84.6480966,
            34.6301665
          ],
          [
            -84.6480348,
            34.6303346
          ],
          [
            -84.6480938,
            34.6306304
          ],
          [
            -84.6480459,
            34.630733
          ],
          [
            -84.6479865,
            34.6308599
          ],
          [
            -84.6479436,
            34.6310012
          ],
          [
            -84.6479651,
            34.6312616
          ],
          [
            -84.648067,
            34.6314073
          ],
          [
            -84.648156,
            34.631608
          ]
        ]
      },
      "id": "way/368665781"
    },
    {
      "type": "Feature",
      "properties": {
        "@id": "way/368665782",
        "bicycle": "designated",
        "foot": "designated",
        "highway": "path",
        "motor_vehicle": "no",
        "name": "Amadahy Trail",
        "source": "Strava Global Heatmap",
        "website": "https://www.sam.usace.army.mil/Portals/46/docs/recreation/carters/docs/Trails.pdf"
      },
      "geometry": {
        "type": "LineString",
        "coordinates": [
          [
            -84.6480459,
            34.630733
          ],
          [
            -84.6482011,
            34.630573
          ],
          [
            -84.6482118,
            34.6304891
          ],
          [
            -84.6482118,
            34.6303302
          ],
          [
            -84.6482333,
            34.6302155
          ],
          [
            -84.6482816,
            34.6301713
          ],
          [
            -84.6483567,
            34.6301625
          ],
          [
            -84.6484854,
            34.6302155
          ],
          [
            -84.6486303,
            34.6302993
          ],
          [
            -84.6488127,
            34.6304053
          ],
          [
            -84.6489575,
            34.6304318
          ],
          [
            -84.649085,
            34.6304654
          ],
          [
            -84.6492924,
            34.630536
          ],
          [
            -84.6494101,
            34.6304955
          ],
          [
            -84.6494627,
            34.6304282
          ],
          [
            -84.6494422,
            34.6302951
          ],
          [
            -84.6493429,
            34.6301604
          ],
          [
            -84.6492363,
            34.6300872
          ],
          [
            -84.649146,
            34.6299137
          ],
          [
            -84.6491949,
            34.6298713
          ],
          [
            -84.6493523,
            34.6298754
          ],
          [
            -84.6495419,
            34.6299431
          ],
          [
            -84.6498047,
            34.6299973
          ],
          [
            -84.6499698,
            34.6300098
          ],
          [
            -84.6500698,
            34.6299821
          ],
          [
            -84.6501479,
            34.6299133
          ],
          [
            -84.6501576,
            34.6298092
          ],
          [
            -84.6501121,
            34.6297215
          ],
          [
            -84.6498806,
            34.6293951
          ],
          [
            -84.6497611,
            34.6292629
          ],
          [
            -84.6497268,
            34.6291578
          ],
          [
            -84.6497041,
            34.6290469
          ],
          [
            -84.649778,
            34.6290167
          ],
          [
            -84.64985,
            34.6290227
          ],
          [
            -84.649922,
            34.6291056
          ],
          [
            -84.6501474,
            34.6293421
          ],
          [
            -84.6503262,
            34.6295095
          ],
          [
            -84.6505761,
            34.6296723
          ],
          [
            -84.6507646,
            34.6297056
          ],
          [
            -84.6510549,
            34.6296467
          ],
          [
            -84.6513973,
            34.6294922
          ],
          [
            -84.6515179,
            34.6293985
          ],
          [
            -84.6515606,
            34.6292868
          ],
          [
            -84.6515663,
            34.6291296
          ],
          [
            -84.6516209,
            34.6290838
          ],
          [
            -84.6517752,
            34.6290972
          ],
          [
            -84.651917,
            34.6291673
          ],
          [
            -84.6520927,
            34.6293008
          ],
          [
            -84.6522424,
            34.629351
          ],
          [
            -84.6523766,
            34.6293478
          ],
          [
            -84.6525034,
            34.6293163
          ],
          [
            -84.6530209,
            34.6290581
          ],
          [
            -84.6531739,
            34.6289436
          ],
          [
            -84.6532276,
            34.6288631
          ],
          [
            -84.6532413,
            34.6287548
          ],
          [
            -84.653223,
            34.628589
          ],
          [
            -84.6532536,
            34.6284695
          ],
          [
            -84.6533213,
            34.6283464
          ],
          [
            -84.6533151,
            34.6282493
          ],
          [
            -84.6532288,
            34.6280305
          ],
          [
            -84.6531285,
            34.6279526
          ],
          [
            -84.6530013,
            34.627901
          ],
          [
            -84.6527787,
            34.6278494
          ],
          [
            -84.6527408,
            34.6278028
          ],
          [
            -84.652766,
            34.6277377
          ],
          [
            -84.6529289,
            34.6275332
          ],
          [
            -84.6529365,
            34.6273837
          ],
          [
            -84.6528599,
            34.6272361
          ],
          [
            -84.6527598,
            34.6271358
          ],
          [
            -84.6526357,
            34.6270399
          ],
          [
            -84.6525976,
            34.6269858
          ],
          [
            -84.6525974,
            34.6268661
          ],
          [
            -84.6524845,
            34.6267353
          ],
          [
            -84.652426,
            34.6266992
          ],
          [
            -84.6523246,
            34.6266718
          ],
          [
            -84.6522591,
            34.6265726
          ],
          [
            -84.6522473,
            34.6264402
          ],
          [
            -84.6523938,
            34.6261559
          ],
          [
            -84.6524008,
            34.6261057
          ],
          [
            -84.6523678,
            34.6259437
          ],
          [
            -84.6521952,
            34.6257242
          ],
          [
            -84.6521781,
            34.625629
          ],
          [
            -84.6523824,
            34.6254331
          ],
          [
            -84.6524641,
            34.6253161
          ],
          [
            -84.6524815,
            34.6252234
          ],
          [
            -84.6524898,
            34.6250215
          ],
          [
            -84.6525368,
            34.6249449
          ],
          [
            -84.6526215,
            34.624855
          ],
          [
            -84.6526879,
            34.6247692
          ],
          [
            -84.6527069,
            34.6247016
          ],
          [
            -84.6526994,
            34.6246748
          ],
          [
            -84.6526323,
            34.6246547
          ],
          [
            -84.652533,
            34.6246718
          ],
          [
            -84.6523957,
            34.6247226
          ],
          [
            -84.6522643,
            34.6247197
          ],
          [
            -84.6521516,
            34.624689
          ],
          [
            -84.6517827,
            34.6246976
          ],
          [
            -84.6516878,
            34.6247155
          ],
          [
            -84.6513149,
            34.6247219
          ],
          [
            -84.6510736,
            34.6247405
          ],
          [
            -84.6509549,
            34.6247134
          ],
          [
            -84.6509409,
            34.6246413
          ],
          [
            -84.6510047,
            34.624567
          ],
          [
            -84.6512838,
            34.6244633
          ],
          [
            -84.6514556,
            34.624375
          ],
          [
            -84.6515596,
            34.6242809
          ],
          [
            -84.6516015,
            34.6241511
          ],
          [
            -84.6516068,
            34.6240179
          ],
          [
            -84.6515831,
            34.6238681
          ],
          [
            -84.6514515,
            34.6236233
          ],
          [
            -84.6513239,
            34.6233644
          ],
          [
            -84.6513278,
            34.6232602
          ],
          [
            -84.6513835,
            34.623194
          ],
          [
            -84.6514674,
            34.6231507
          ],
          [
            -84.6515677,
            34.6231869
          ],
          [
            -84.6516761,
            34.6232799
          ],
          [
            -84.6518415,
            34.6234391
          ],
          [
            -84.6519512,
            34.6234966
          ],
          [
            -84.6520614,
            34.6235081
          ],
          [
            -84.6521635,
            34.6235063
          ],
          [
            -84.6522335,
            34.6234624
          ],
          [
            -84.6522841,
            34.623398
          ],
          [
            -84.6523271,
            34.6229758
          ],
          [
            -84.6522904,
            34.6228239
          ],
          [
            -84.6522354,
            34.6227005
          ],
          [
            -84.65214,
            34.6224861
          ],
          [
            -84.6520649,
            34.6223753
          ],
          [
            -84.6519609,
            34.6222378
          ],
          [
            -84.6519703,
            34.6221804
          ],
          [
            -84.6520043,
            34.6221526
          ],
          [
            -84.6520547,
            34.6221556
          ],
          [
            -84.6522664,
            34.6222489
          ],
          [
            -84.6523723,
            34.6222664
          ],
          [
            -84.6524534,
            34.6222578
          ],
          [
            -84.6526223,
            34.6221718
          ],
          [
            -84.6527511,
            34.6221433
          ],
          [
            -84.6528624,
            34.6221339
          ],
          [
            -84.6529413,
            34.6221328
          ],
          [
            -84.6529908,
            34.6220918
          ],
          [
            -84.6530287,
            34.6220106
          ],
          [
            -84.6529981,
            34.6214787
          ],
          [
            -84.6530164,
            34.6213264
          ],
          [
            -84.6530095,
            34.6212606
          ],
          [
            -84.6529684,
            34.6212137
          ],
          [
            -84.6528812,
            34.6211678
          ],
          [
            -84.6528063,
            34.6211573
          ],
          [
            -84.652631,
            34.6211389
          ],
          [
            -84.6524615,
            34.621193
          ],
          [
            -84.6523883,
            34.6211986
          ],
          [
            -84.6523452,
            34.6211687
          ],
          [
            -84.6522989,
            34.6210235
          ],
          [
            -84.6522353,
            34.620962
          ],
          [
            -84.6520582,
            34.6208474
          ],
          [
            -84.651984,
            34.6208095
          ],
          [
            -84.6519769,
            34.6207674
          ],
          [
            -84.6520271,
            34.6207311
          ],
          [
            -84.6521858,
            34.620615
          ],
          [
            -84.6522102,
            34.6205354
          ],
          [
            -84.6522239,
            34.6204216
          ],
          [
            -84.652172,
            34.6203586
          ],
          [
            -84.6520571,
            34.6203264
          ],
          [
            -84.6518469,
            34.6202424
          ],
          [
            -84.6516985,
            34.6202235
          ],
          [
            -84.6515876,
            34.620183
          ],
          [
            -84.6514015,
            34.6201798
          ],
          [
            -84.6510246,
            34.6200482
          ],
          [
            -84.6509081,
            34.6199941
          ],
          [
            -84.6508688,
            34.6199101
          ],
          [
            -84.6508568,
            34.6197053
          ],
          [
            -84.650795,
            34.6195588
          ],
          [
            -84.650753,
            34.6194325
          ],
          [
            -84.6508046,
            34.6193778
          ],
          [
            -84.650918,
            34.6193459
          ],
          [
            -84.6510037,
            34.6193353
          ],
          [
            -84.6511845,
            34.6193715
          ],
          [
            -84.6513307,
            34.6194242
          ],
          [
            -84.6514441,
            34.6194368
          ],
          [
            -84.6515364,
            34.6194263
          ],
          [
            -84.6518341,
            34.6193241
          ],
          [
            -84.6519261,
            34.6192486
          ],
          [
            -84.6519354,
            34.6191717
          ],
          [
            -84.651905,
            34.6191149
          ],
          [
            -84.6518349,
            34.6190675
          ],
          [
            -84.6516514,
            34.6190066
          ],
          [
            -84.6514433,
            34.6189965
          ],
          [
            -84.6512779,
            34.6190057
          ],
          [
            -84.6511428,
            34.6190303
          ],
          [
            -84.6510507,
            34.619021
          ],
          [
            -84.6509894,
            34.6189918
          ],
          [
            -84.6508792,
            34.6188873
          ],
          [
            -84.6507503,
            34.618827
          ],
          [
            -84.650697,
            34.6188044
          ],
          [
            -84.6505958,
            34.6188028
          ],
          [
            -84.6504786,
            34.6188216
          ],
          [
            -84.6504031,
            34.6188469
          ],
          [
            -84.6503331,
            34.6188409
          ],
          [
            -84.6502701,
            34.6188052
          ],
          [
            -84.6502083,
            34.6186408
          ],
          [
            -84.6499545,
            34.6184965
          ],
          [
            -84.64978,
            34.6184673
          ],
          [
            -84.6495816,
            34.6184104
          ],
          [
            -84.6494302,
            34.6183838
          ],
          [
            -84.649357,
            34.6184534
          ],
          [
            -84.6491869,
            34.6186422
          ],
          [
            -84.649119,
            34.618722
          ],
          [
            -84.6489963,
            34.6189373
          ],
          [
            -84.648985,
            34.6191087
          ],
          [
            -84.6490092,
            34.6191951
          ],
          [
            -84.6489979,
            34.6193427
          ],
          [
            -84.6490092,
            34.6202106
          ],
          [
            -84.6489396,
            34.6203859
          ],
          [
            -84.6488332,
            34.620624
          ],
          [
            -84.6488751,
            34.6207835
          ],
          [
            -84.6489834,
            34.6209736
          ],
          [
            -84.6490634,
            34.6211367
          ],
          [
            -84.6490631,
            34.621245
          ],
          [
            -84.6489373,
            34.6214388
          ],
          [
            -84.6486103,
            34.62167
          ],
          [
            -84.648431,
            34.6218986
          ],
          [
            -84.6484132,
            34.6219425
          ],
          [
            -84.6484068,
            34.62211
          ],
          [
            -84.6484034,
            34.6223617
          ],
          [
            -84.648393,
            34.6225014
          ],
          [
            -84.6483334,
            34.6226362
          ],
          [
            -84.6482521,
            34.6228926
          ],
          [
            -84.6481184,
            34.623002
          ],
          [
            -84.6480238,
            34.6231098
          ],
          [
            -84.6479611,
            34.6233343
          ],
          [
            -84.6478799,
            34.6235132
          ],
          [
            -84.6479167,
            34.623727
          ],
          [
            -84.6479325,
            34.6237832
          ],
          [
            -84.647906,
            34.6238372
          ],
          [
            -84.6478375,
            34.6238785
          ],
          [
            -84.6477159,
            34.623864
          ],
          [
            -84.6476225,
            34.6238199
          ],
          [
            -84.6474804,
            34.6235333
          ],
          [
            -84.6474379,
            34.6233337
          ],
          [
            -84.6473315,
            34.6232079
          ],
          [
            -84.6471883,
            34.62308
          ],
          [
            -84.6471004,
            34.6230587
          ],
          [
            -84.6470125,
            34.6230575
          ],
          [
            -84.6468103,
            34.6231159
          ],
          [
            -84.6467109,
            34.6231185
          ],
          [
            -84.6466517,
            34.6230888
          ],
          [
            -84.6466303,
            34.6228809
          ],
          [
            -84.6466226,
            34.6227733
          ],
          [
            -84.6466475,
            34.622475
          ],
          [
            -84.6466778,
            34.6223897
          ],
          [
            -84.6467203,
            34.6223411
          ],
          [
            -84.646851,
            34.6222269
          ],
          [
            -84.6468803,
            34.6221513
          ],
          [
            -84.6468605,
            34.6218826
          ],
          [
            -84.6467835,
            34.6218235
          ],
          [
            -84.6466922,
            34.621808
          ],
          [
            -84.6465838,
            34.6218527
          ],
          [
            -84.6464593,
            34.6219557
          ],
          [
            -84.6463767,
            34.6220541
          ],
          [
            -84.6463366,
            34.6221991
          ],
          [
            -84.6462437,
            34.6222751
          ],
          [
            -84.6459504,
            34.6223807
          ],
          [
            -84.6457661,
            34.6224844
          ],
          [
            -84.6456312,
            34.6226464
          ],
          [
            -84.6455323,
            34.6229002
          ],
          [
            -84.6453461,
            34.6231937
          ],
          [
            -84.6450388,
            34.6234399
          ],
          [
            -84.644861,
            34.6238216
          ],
          [
            -84.6447539,
            34.6241078
          ],
          [
            -84.6447727,
            34.6243069
          ],
          [
            -84.6447527,
            34.6245601
          ],
          [
            -84.6447801,
            34.6246616
          ],
          [
            -84.6448142,
            34.6247559
          ],
          [
            -84.644834,
            34.6250375
          ],
          [
            -84.644924,
            34.6251323
          ],
          [
            -84.6450933,
            34.625212
          ],
          [
            -84.6452705,
            34.6252368
          ],
          [
            -84.6453685,
            34.6252733
          ],
          [
            -84.6453913,
            34.6253524
          ],
          [
            -84.6453753,
            34.6254422
          ],
          [
            -84.6453267,
            34.6255252
          ],
          [
            -84.6452574,
            34.6256891
          ],
          [
            -84.6452029,
            34.6257555
          ],
          [
            -84.6451409,
            34.6257913
          ],
          [
            -84.6448349,
            34.625782
          ],
          [
            -84.6447286,
            34.625802
          ],
          [
            -84.6446277,
            34.6258817
          ],
          [
            -84.6444576,
            34.6261236
          ],
          [
            -84.6442373,
            34.6262578
          ],
          [
            -84.6440909,
            34.6263522
          ],
          [
            -84.644002,
            34.6264597
          ],
          [
            -84.6439538,
            34.6265706
          ],
          [
            -84.6438908,
            34.6268006
          ],
          [
            -84.6439133,
            34.6268993
          ],
          [
            -84.6440123,
            34.6269892
          ],
          [
            -84.6442844,
            34.6271125
          ],
          [
            -84.6443756,
            34.6271744
          ],
          [
            -84.6446362,
            34.6274625
          ],
          [
            -84.6447122,
            34.6274994
          ],
          [
            -84.6448045,
            34.6275096
          ],
          [
            -84.6449122,
            34.6275216
          ],
          [
            -84.6450566,
            34.6275169
          ],
          [
            -84.6451495,
            34.6275398
          ],
          [
            -84.6452315,
            34.6275965
          ],
          [
            -84.6453623,
            34.6277468
          ],
          [
            -84.6454333,
            34.6279108
          ],
          [
            -84.6454975,
            34.6279864
          ],
          [
            -84.6458301,
            34.6282628
          ],
          [
            -84.6461147,
            34.6284317
          ],
          [
            -84.6463586,
            34.6284919
          ],
          [
            -84.6465863,
            34.6285187
          ],
          [
            -84.6469196,
            34.6285655
          ],
          [
            -84.6471717,
            34.6286057
          ],
          [
            -84.6473181,
            34.6286057
          ],
          [
            -84.64744,
            34.6285521
          ],
          [
            -84.6476514,
            34.6283648
          ],
          [
            -84.6478547,
            34.628231
          ],
          [
            -84.6479441,
            34.6281574
          ],
          [
            -84.6479929,
            34.6280637
          ],
          [
            -84.6479767,
            34.6279232
          ],
          [
            -84.6478872,
            34.6275619
          ],
          [
            -84.6478791,
            34.6273411
          ],
          [
            -84.6478793,
            34.6271874
          ],
          [
            -84.6479275,
            34.6271432
          ],
          [
            -84.6479973,
            34.6271697
          ],
          [
            -84.6480563,
            34.6272977
          ],
          [
            -84.6480885,
            34.6274434
          ],
          [
            -84.6481421,
            34.6275847
          ],
          [
            -84.6481743,
            34.6276597
          ],
          [
            -84.6482387,
            34.6277127
          ],
          [
            -84.6483299,
            34.6277171
          ],
          [
            -84.6484211,
            34.6276862
          ],
          [
            -84.6485927,
            34.62762
          ],
          [
            -84.6486786,
            34.6276156
          ],
          [
            -84.6487537,
            34.6276332
          ],
          [
            -84.6487537,
            34.6276818
          ],
          [
            -84.6486893,
            34.6277789
          ],
          [
            -84.6485337,
            34.6279819
          ],
          [
            -84.6484318,
            34.6280835
          ],
          [
            -84.6483513,
            34.6281629
          ],
          [
            -84.648303,
            34.6282335
          ],
          [
            -84.648303,
            34.6282998
          ],
          [
            -84.6483567,
            34.6284145
          ],
          [
            -84.6483996,
            34.6284366
          ],
          [
            -84.6484908,
            34.6284719
          ],
          [
            -84.6485713,
            34.6284763
          ],
          [
            -84.6486303,
            34.628516
          ],
          [
            -84.6486303,
            34.6285911
          ],
          [
            -84.6485498,
            34.6287412
          ],
          [
            -84.6485015,
            34.6288206
          ],
          [
            -84.6484908,
            34.6289575
          ],
          [
            -84.6484801,
            34.6290634
          ],
          [
            -84.6484264,
            34.6291561
          ],
          [
            -84.6483781,
            34.6291693
          ],
          [
            -84.6482709,
            34.6291164
          ],
          [
            -84.6481689,
            34.629059
          ],
          [
            -84.6479436,
            34.6290193
          ],
          [
            -84.6478202,
            34.6290413
          ],
          [
            -84.647713,
            34.6291031
          ],
          [
            -84.6476593,
            34.6292444
          ],
          [
            -84.6476164,
            34.6294739
          ],
          [
            -84.6475735,
            34.6296461
          ],
          [
            -84.6475306,
            34.6298491
          ],
          [
            -84.6475681,
            34.6299992
          ],
          [
            -84.6477237,
            34.6301802
          ],
          [
            -84.6478256,
            34.6302729
          ],
          [
            -84.6479143,
            34.630397
          ],
          [
            -84.6480459,
            34.630733
          ]
        ]
      },
      "id": "way/368665782"
    }
  ]
}